{
  "links" : {
    "next" : "https://api.nasa.gov/neo/rest/v1/feed?start_date=2003-05-23&end_date=2003-05-23&detailed=true&api_key=t0TVs3DtDT2H8Oy2Zy8m2eVrNsAVKAexjcZXUckd",
    "prev" : "https://api.nasa.gov/neo/rest/v1/feed?start_date=2003-05-21&end_date=2003-05-21&detailed=true&api_key=t0TVs3DtDT2H8Oy2Zy8m2eVrNsAVKAexjcZXUckd",
    "self" : "https://api.nasa.gov/neo/rest/v1/feed?start_date=2003-05-22&end_date=2003-05-22&detailed=true&api_key=t0TVs3DtDT2H8Oy2Zy8m2eVrNsAVKAexjcZXUckd"
  },
  "element_count" : 1,
  "near_earth_objects" : {
    "2003-05-22" : [ {
      "links" : {
        "self" : "https://api.nasa.gov/neo/rest/v1/neo/2141484?api_key=t0TVs3DtDT2H8Oy2Zy8m2eVrNsAVKAexjcZXUckd"
      },
      "neo_reference_id" : "2141484",
      "name" : "141484 (2002 DB4)",
      "nasa_jpl_url" : "http://ssd.jpl.nasa.gov/sbdb.cgi?sstr=2141484",
      "absolute_magnitude_h" : 16.4,
      "estimated_diameter" : {
        "kilometers" : {
          "estimated_diameter_min" : 1.3949382293,
          "estimated_diameter_max" : 3.1191767052
        },
        "meters" : {
          "estimated_diameter_min" : 1394.9382293439,
          "estimated_diameter_max" : 3119.1767052261
        },
        "miles" : {
          "estimated_diameter_min" : 0.8667741625,
          "estimated_diameter_max" : 1.9381659485
        },
        "feet" : {
          "estimated_diameter_min" : 4576.5691403606,
          "estimated_diameter_max" : 10233.5197015741
        }
      },
      "is_potentially_hazardous_asteroid" : false,
      "close_approach_data" : [ {
        "close_approach_date" : "2003-05-22",
        "epoch_date_close_approach" : 1053586800000,
        "relative_velocity" : {
          "kilometers_per_second" : "10.8523806611",
          "kilometers_per_hour" : "39068.5703798851",
          "miles_per_hour" : "24275.6903007681"
        },
        "miss_distance" : {
          "astronomical" : "0.3127039397",
          "lunar" : "121.6418304443",
          "kilometers" : "46779844",
          "miles" : "29067648"
        },
        "orbiting_body" : "Earth"
      } ],
      "orbital_data" : {
        "orbit_id" : "90",
        "orbit_determination_date" : "2017-04-06 09:27:33",
        "orbit_uncertainty" : "0",
        "minimum_orbit_intersection" : ".152107",
        "jupiter_tisserand_invariant" : "6.788",
        "epoch_osculation" : "2458000.5",
        "eccentricity" : ".3694822233031226",
        "semi_major_axis" : ".857901422249788",
        "inclination" : "16.60418560553134",
        "ascending_node_longitude" : "234.2660097897962",
        "orbital_period" : "290.2381576341548",
        "perihelion_distance" : ".5409220973820255",
        "perihelion_argument" : "94.12029937107167",
        "aphelion_distance" : "1.174880747117551",
        "perihelion_time" : "2458053.152654405127",
        "mean_anomaly" : "294.6917175179343",
        "mean_motion" : "1.240360684944052",
        "equinox" : "J2000"
      }
    } ]
  }
}